FENGYUN 1C DEB          
1 31849U 99025CJP 17342.89775885  .00008391  00000-0  50904-3 0  9996
2 31849  97.8558 218.0695 0076342 190.5716 169.3910 15.08346878207403
